*******************************************************************************
Ephemeris / WWW_USER Mon Jul 15 19:19:14 2024 Pasadena, USA      / Horizons    
*******************************************************************************
Target body name: (2018 YU2)                      {source: JPL#5}
Center body name: Earth (399)                     {source: DE441}
Center-site name: Gemini South Obs., Cerro Pachon
*******************************************************************************
Start time      : A.D. 2018-Oct-16 23:02:00.0000 UT      
Stop  time      : A.D. 2018-Oct-17 09:54:00.0000 UT      
Step-size       : 1 minutes
*******************************************************************************
Target pole/equ : undefined
Target radii    : undefined                                                    
Center geodetic : 289.2634, -30.2406227, 2.71233  {E-lon(deg),Lat(deg),Alt(km)}
Center cylindric: 289.2634,5517.21435,-3194.81213 {E-lon(deg),Dxy(km),Dz(km)}
Center pole/equ : ITRF93                          {East-longitude positive}
Center radii    : 6378.137, 6378.137, 6356.752 km {Equator_a, b, pole_c}       
Target primary  : Sun
Vis. interferer : MOON (R_eq= 1737.400) km        {source: DE441}
Rel. light bend : Sun                             {source: DE441}
Rel. lght bnd GM: 1.3271E+11 km^3/s^2                                          
Small-body perts: Yes                             {source: SB441-N16}
Atmos refraction: NO (AIRLESS)
RA format       : HMS
Time format     : CAL 
Calendar mode   : Mixed Julian/Gregorian
RTS-only print  : NO       
EOP file        : eop.240715.p241008                                           
EOP coverage    : DATA-BASED 1962-JAN-20 TO 2024-JUL-15. PREDICTS-> 2024-OCT-07
Units conversion: 1 au= 149597870.700 km, c= 299792.458 km/s, 1 day= 86400.0 s 
Table cut-offs 1: Elevation (-90.0deg=NO ),Airmass (>38.000=NO), Daylight (YES)
Table cut-offs 2: Solar elongation (  0.0,180.0=NO ),Local Hour Angle( 0.0=NO )
Table cut-offs 3: RA/DEC angular rate (     0.0=NO )                           
*******************************************************************************
Initial IAU76/J2000 heliocentric ecliptic osculating elements (au, days, deg.):
  EPOCH=  2458477.5 ! 2018-Dec-25.00 (TDB)         Residual RMS= .22887        
   EC= .1533598773405833   QR= .920984914841031    TP= 2458549.1486254167      
   OM= 279.4515303175068   W=  253.4059234937716   IN= 2.850769624588425       
  Equivalent ICRF heliocentric cartesian coordinates (au, au/d):
   X=-6.842297687009524E-02  Y= 9.429126817220428E-01  Z= 4.143187104036840E-01
  VX=-1.695115058702848E-02 VY=-2.997207899955317E-03 VZ=-2.239432528215744E-03
Asteroid physical parameters (km, seconds, rotational period in hours):        
   GM= n.a.                RAD= n.a.               ROTPER= n.a.                
   H= 26.5                 G= .150                 B-V= n.a.                   
                           ALBEDO= n.a.            STYP= n.a.                  
*******************************************************************************
 Date__(UT)__HR:MN     R.A._________(ICRF)_________DEC
******************************************************
$$SOE
 2018-Oct-17 05:11  m  05 34 15.381406 +32 22 45.84640
 2018-Oct-17 05:12  m  05 34 15.471278 +32 22 46.12001
 2018-Oct-17 05:13  m  05 34 15.561122 +32 22 46.39347
 2018-Oct-17 05:14  m  05 34 15.650940 +32 22 46.66677
 2018-Oct-17 05:15  m  05 34 15.740731 +32 22 46.93992
 2018-Oct-17 05:16  m  05 34 15.830495 +32 22 47.21292
 2018-Oct-17 05:17  m  05 34 15.920232 +32 22 47.48577
 2018-Oct-17 05:18  m  05 34 16.009943 +32 22 47.75846
 2018-Oct-17 05:19  m  05 34 16.099627 +32 22 48.03100
 2018-Oct-17 05:20  m  05 34 16.189284 +32 22 48.30337
 2018-Oct-17 05:21  m  05 34 16.278915 +32 22 48.57560
 2018-Oct-17 05:22  m  05 34 16.368520 +32 22 48.84766
 2018-Oct-17 05:23  m  05 34 16.458098 +32 22 49.11957
 2018-Oct-17 05:24  m  05 34 16.547651 +32 22 49.39131
 2018-Oct-17 05:25  m  05 34 16.637177 +32 22 49.66290
 2018-Oct-17 05:26  m  05 34 16.726678 +32 22 49.93433
 2018-Oct-17 05:27  m  05 34 16.816153 +32 22 50.20559
 2018-Oct-17 05:28  m  05 34 16.905602 +32 22 50.47669
 2018-Oct-17 05:29  m  05 34 16.995025 +32 22 50.74763
 2018-Oct-17 05:30  m  05 34 17.084423 +32 22 51.01841
 2018-Oct-17 05:31  m  05 34 17.173796 +32 22 51.28902
 2018-Oct-17 05:32  m  05 34 17.263143 +32 22 51.55946
 2018-Oct-17 05:33  m  05 34 17.352466 +32 22 51.82974
 2018-Oct-17 05:34  m  05 34 17.441763 +32 22 52.09986
 2018-Oct-17 05:35  m  05 34 17.531035 +32 22 52.36980
 2018-Oct-17 05:36  m  05 34 17.620282 +32 22 52.63958
 2018-Oct-17 05:37  m  05 34 17.709505 +32 22 52.90919
 2018-Oct-17 05:38  m  05 34 17.798703 +32 22 53.17863
 2018-Oct-17 05:39  m  05 34 17.887876 +32 22 53.44789
 2018-Oct-17 05:40  m  05 34 17.977025 +32 22 53.71699
 2018-Oct-17 05:41  m  05 34 18.066150 +32 22 53.98592
 2018-Oct-17 05:42  m  05 34 18.155250 +32 22 54.25467
 2018-Oct-17 05:43  m  05 34 18.244326 +32 22 54.52325
 2018-Oct-17 05:44  m  05 34 18.333378 +32 22 54.79165
 2018-Oct-17 05:45  m  05 34 18.422407 +32 22 55.05988
 2018-Oct-17 05:46  m  05 34 18.511411 +32 22 55.32794
 2018-Oct-17 05:47  m  05 34 18.600392 +32 22 55.59582
 2018-Oct-17 05:48  m  05 34 18.689350 +32 22 55.86352
 2018-Oct-17 05:49  m  05 34 18.778284 +32 22 56.13105
 2018-Oct-17 05:50  m  05 34 18.867194 +32 22 56.39839
 2018-Oct-17 05:51  m  05 34 18.956081 +32 22 56.66556
 2018-Oct-17 05:52  m  05 34 19.044946 +32 22 56.93255
 2018-Oct-17 05:53  m  05 34 19.133787 +32 22 57.19936
 2018-Oct-17 05:54  m  05 34 19.222605 +32 22 57.46599
 2018-Oct-17 05:55  m  05 34 19.311401 +32 22 57.73243
 2018-Oct-17 05:56  m  05 34 19.400174 +32 22 57.99870
 2018-Oct-17 05:57  m  05 34 19.488924 +32 22 58.26478
 2018-Oct-17 05:58  m  05 34 19.577652 +32 22 58.53068
 2018-Oct-17 05:59  m  05 34 19.666357 +32 22 58.79639
 2018-Oct-17 06:00  m  05 34 19.755041 +32 22 59.06192
 2018-Oct-17 06:01  m  05 34 19.843702 +32 22 59.32726
 2018-Oct-17 06:02  m  05 34 19.932341 +32 22 59.59242
 2018-Oct-17 06:03     05 34 20.020959 +32 22 59.85739
 2018-Oct-17 06:04     05 34 20.109555 +32 23 00.12218
 2018-Oct-17 06:05     05 34 20.198129 +32 23 00.38677
 2018-Oct-17 06:06     05 34 20.286681 +32 23 00.65118
 2018-Oct-17 06:07     05 34 20.375213 +32 23 00.91539
 2018-Oct-17 06:08     05 34 20.463723 +32 23 01.17942
 2018-Oct-17 06:09     05 34 20.552211 +32 23 01.44326
 2018-Oct-17 06:10     05 34 20.640679 +32 23 01.70691
 2018-Oct-17 06:11     05 34 20.729126 +32 23 01.97036
 2018-Oct-17 06:12     05 34 20.817552 +32 23 02.23362
 2018-Oct-17 06:13     05 34 20.905958 +32 23 02.49669
 2018-Oct-17 06:14     05 34 20.994343 +32 23 02.75957
 2018-Oct-17 06:15     05 34 21.082708 +32 23 03.02225
 2018-Oct-17 06:16     05 34 21.171052 +32 23 03.28473
 2018-Oct-17 06:17     05 34 21.259376 +32 23 03.54703
 2018-Oct-17 06:18     05 34 21.347680 +32 23 03.80912
 2018-Oct-17 06:19     05 34 21.435964 +32 23 04.07102
 2018-Oct-17 06:20     05 34 21.524228 +32 23 04.33272
 2018-Oct-17 06:21     05 34 21.612473 +32 23 04.59423
 2018-Oct-17 06:22     05 34 21.700698 +32 23 04.85553
 2018-Oct-17 06:23     05 34 21.788904 +32 23 05.11664
 2018-Oct-17 06:24     05 34 21.877090 +32 23 05.37755
 2018-Oct-17 06:25     05 34 21.965258 +32 23 05.63826
 2018-Oct-17 06:26     05 34 22.053406 +32 23 05.89876
 2018-Oct-17 06:27     05 34 22.141535 +32 23 06.15907
 2018-Oct-17 06:28     05 34 22.229646 +32 23 06.41917
 2018-Oct-17 06:29     05 34 22.317737 +32 23 06.67908
 2018-Oct-17 06:30     05 34 22.405811 +32 23 06.93878
 2018-Oct-17 06:31     05 34 22.493865 +32 23 07.19827
 2018-Oct-17 06:32     05 34 22.581902 +32 23 07.45757
 2018-Oct-17 06:33     05 34 22.669920 +32 23 07.71665
 2018-Oct-17 06:34     05 34 22.757921 +32 23 07.97554
 2018-Oct-17 06:35     05 34 22.845903 +32 23 08.23422
 2018-Oct-17 06:36     05 34 22.933868 +32 23 08.49269
 2018-Oct-17 06:37     05 34 23.021815 +32 23 08.75096
 2018-Oct-17 06:38     05 34 23.109745 +32 23 09.00902
 2018-Oct-17 06:39     05 34 23.197657 +32 23 09.26687
 2018-Oct-17 06:40     05 34 23.285552 +32 23 09.52451
 2018-Oct-17 06:41     05 34 23.373430 +32 23 09.78195
 2018-Oct-17 06:42     05 34 23.461291 +32 23 10.03917
 2018-Oct-17 06:43     05 34 23.549135 +32 23 10.29619
 2018-Oct-17 06:44     05 34 23.636962 +32 23 10.55300
 2018-Oct-17 06:45     05 34 23.724773 +32 23 10.80960
 2018-Oct-17 06:46     05 34 23.812567 +32 23 11.06598
 2018-Oct-17 06:47     05 34 23.900345 +32 23 11.32216
 2018-Oct-17 06:48     05 34 23.988107 +32 23 11.57812
 2018-Oct-17 06:49     05 34 24.075853 +32 23 11.83387
 2018-Oct-17 06:50     05 34 24.163583 +32 23 12.08941
 2018-Oct-17 06:51     05 34 24.251297 +32 23 12.34473
 2018-Oct-17 06:52     05 34 24.338995 +32 23 12.59985
 2018-Oct-17 06:53     05 34 24.426678 +32 23 12.85474
 2018-Oct-17 06:54     05 34 24.514345 +32 23 13.10942
 2018-Oct-17 06:55     05 34 24.601998 +32 23 13.36389
 2018-Oct-17 06:56     05 34 24.689635 +32 23 13.61814
 2018-Oct-17 06:57     05 34 24.777257 +32 23 13.87218
 2018-Oct-17 06:58     05 34 24.864864 +32 23 14.12600
 2018-Oct-17 06:59     05 34 24.952457 +32 23 14.37960
 2018-Oct-17 07:00     05 34 25.040035 +32 23 14.63299
 2018-Oct-17 07:01     05 34 25.127599 +32 23 14.88616
 2018-Oct-17 07:02     05 34 25.215148 +32 23 15.13911
 2018-Oct-17 07:03     05 34 25.302684 +32 23 15.39184
 2018-Oct-17 07:04     05 34 25.390205 +32 23 15.64435
 2018-Oct-17 07:05     05 34 25.477712 +32 23 15.89665
 2018-Oct-17 07:06     05 34 25.565206 +32 23 16.14872
 2018-Oct-17 07:07     05 34 25.652686 +32 23 16.40057
 2018-Oct-17 07:08     05 34 25.740152 +32 23 16.65221
 2018-Oct-17 07:09     05 34 25.827606 +32 23 16.90362
 2018-Oct-17 07:10     05 34 25.915046 +32 23 17.15481
 2018-Oct-17 07:11     05 34 26.002473 +32 23 17.40578
 2018-Oct-17 07:12     05 34 26.089887 +32 23 17.65653
 2018-Oct-17 07:13     05 34 26.177289 +32 23 17.90706
